BEIDOU-3 M14            
1 43623U 18072B   26134.03606905 -.00000037  00000+0  00000+0 0  9990
2 43623  56.5980  63.7808 0006648 347.7176  12.2477  1.86231503 52014
BEIDOU-3 M16            
1 43647U 18078A   26138.48750758 -.00000056  00000+0  00000+0 0  9992
2 43647  54.1181 301.0266 0007821  40.0003 320.0297  1.86232202 51600
BEIDOU-3 M15            
1 43648U 18078B   26138.61680616 -.00000056  00000+0  00000+0 0  9993
2 43648  54.1140 301.0228 0004919  52.9460 307.0716  1.86232306 51626
BEIDOU-3 G1             
1 43683U 18085A   26139.48405920 -.00000110  00000+0  00000+0 0  9990
2 43683   2.7957  98.1575 0007826 341.1133 132.1169  1.00271351 27776
BEIDOU-3 M17            
1 43706U 18093A   26138.35612889  .00000068  00000+0  00000+0 0  9995
2 43706  54.1671 183.3085 0009685 290.9034 146.3367  1.86228319 50981
BEIDOU-3 M18            
1 43707U 18093B   26139.17793441  .00000056  00000+0  00000+0 0  9998
2 43707  54.1676 183.2730 0007562 321.1548  38.8724  1.86226713 50991
BEIDOU-3 IGSO-1         
1 44204U 19023A   26132.76772565 -.00000227  00000+0  00000+0 0  9998
2 44204  58.6468  38.0171 0023856 234.3090 349.8662  1.00250503  6851
BEIDOU-2 G8             
1 44231U 19027A   26139.55559463 -.00000249  00000+0  00000+0 0  9990
2 44231   1.5860  74.4303 0010714 280.3716 226.9692  1.00270566 25793
BEIDOU-3 IGSO-2         
1 44337U 19035A   26139.44899664 -.00000077  00000+0  00000+0 0  9993
2 44337  55.2391 159.1143 0039638 216.6785 142.9304  1.00275428 25375
BEIDOU-3 M24            
1 44542U 19061A   26138.71000030  .00000063  00000+0  00000+0 0  9994
2 44542  54.3946 183.7224 0008105   2.2615 357.8272  1.86229135 45245
BEIDOU-3 M23            
1 44543U 19061B   26139.39368032  .00000053  00000+0  00000+0 0  9998
2 44543  54.3929 183.6676 0005335 341.1368  29.0987  1.86227410 45266
BEIDOU-3 IGSO-3         
1 44709U 19073A   26120.85038409 -.00000212  00000+0  00000+0 0  9996
2 44709  54.8842 281.4069 0042404 188.8195 170.9972  1.00251230 23982
BEIDOU-3 M22            
1 44793U 19078A   26138.54935259 -.00000056  00000+0  00000+0 0  9994
2 44793  53.9642 300.8701 0006964  48.9586 311.0741  1.86227153 44091
BEIDOU-3 M21            
1 44794U 19078B   26136.54150291 -.00000055  00000+0  00000+0 0  9997
2 44794  53.9390 300.9027 0004900  45.2623 314.7514  1.86227806 44064
BEIDOU-3 M19            
1 44864U 19090A   26139.13431775 -.00000042  00000+0  00000+0 0  9992
2 44864  56.5348  63.7509 0018988 297.0126 198.4217  1.86231245 43696
BEIDOU-3 M20            
1 44865U 19090B   26137.47677451 -.00000044  00000+0  00000+0 0  9993
2 44865  56.5346  63.8405 0016733 310.1234 243.6125  1.86231384 43644
BEIDOU-3 G2             
1 45344U 20017A   26139.53952612 -.00000143  00000+0  00000+0 0  9991
2 45344   2.8072  46.8869 0002278   8.4041  96.1970  1.00271290 22972
BEIDOU-3 G3             
1 45807U 20040A   26139.55947319 -.00000356  00000+0  00000+0 0  9997
2 45807   2.3776  67.3582 0003051 331.7657 150.0738  1.00271227 21787
BEIDOU-3 G4             
1 56564U 23066A   26139.55138247 -.00000283  00000+0  00000+0 0  9991
2 56564   0.5230 324.7131 0003534 173.5518  77.4989  1.00273670 11107
BEIDOU-3 M28            
1 58654U 23207A   26137.15564226 -.00000046  00000+0  00000+0 0  9991
2 58654  55.7267  63.3498 0004118 332.6338  27.3288  1.86229591 16265
BEIDOU-3 M26            
1 58655U 23207B   26139.10098066 -.00000044  00000+0  00000+0 0  9991
2 58655  55.7303  63.2706 0004211 311.8128  48.1429  1.86229602 16281
BEIDOU-3 M25            
1 61186U 24168B   26139.47337656 -.00000058  00000+0  00000+0 0  9997
2 61186  54.4999 303.2393 0002982 311.9305  54.9537  1.86229786 11251
BEIDOU-3 M27            
1 61187U 24168C   26139.53553944 -.00000058  00000+0  00000+0 0  9995
2 61187  54.4951 303.2201 0002180  47.1155 136.4661  1.86229873  8728
